ONEWEB-0311             
1 49097U 21075Y   26137.11383622  .00000058  00000+0  11504-3 0  9995
2 49097  87.9164  12.0405 0002150  93.3617 266.7761 13.17648352229531
ONEWEB-0312             
1 49098U 21075Z   26137.12900729  .00000004  00000+0 -22831-4 0  9998
2 49098  87.9156  12.0493 0001744  93.0749 267.0582 13.17648747229512
ONEWEB-0313             
1 49099U 21075AA  26137.13394729 -.00000024  00000+0 -93935-4 0  9993
2 49099  87.9155  12.0546 0001869  86.1075 274.0271 13.17650461229502
ONEWEB-0314             
1 49100U 21075AB  26137.17626810  .00000084  00000+0  18243-3 0  9991
2 49100  87.9170  12.0151 0001766  95.8962 264.2371 13.17648916229483
ONEWEB-0315             
1 49101U 21075AC  26136.87501647 -.00000307  00000+0 -88840-3 0  9998
2 49101  87.8966 356.8701 0002133  91.0935 269.0438 13.12442308231069
ONEWEB-0316             
1 49102U 21075AD  26137.12532021  .00000041  00000+0  70161-4 0  9999
2 49102  87.9167 341.6404 0001875  88.4009 271.7338 13.18684441233119
ONEWEB-0317             
1 49103U 21075AE  26137.10711529 -.00000502  00000+0 -14318-2 0  9994
2 49103  87.8967 356.8473 0001247  66.9137 293.2123 13.12443623231115
ONEWEB-0318             
1 49104U 21075AF  26137.12194567  .00000059  00000+0  11792-3 0  9993
2 49104  87.9176 341.6396 0002076  91.9161 268.2209 13.18685400233072
ONEWEB-0319             
1 49105U 21075AG  26137.11551080  .00000040  00000+0  69776-4 0  9996
2 49105  87.9160  12.0461 0002323  90.5789 269.5609 13.17651034229511
ONEWEB-0323             
1 49106U 21075AH  26137.16472138 -.00000310  00000+0 -89613-3 0  9991
2 49106  87.8972 356.8173 0002201  97.1094 263.0284 13.12440265230481
ONEWEB-0329             
1 49107U 21075AJ  26137.12394891 -.00000036  00000+0 -12680-3 0  9992
2 49107  87.9160  12.0451 0001825  87.9628 272.1712 13.17650136229494
ONEWEB-0330             
1 49108U 21075AK  26137.14772063  .00000005  00000+0 -21137-4 0  9999
2 49108  87.9165  12.0599 0001699  89.3076 270.8250 13.17648173229530
ONEWEB-0292             
1 49186U 21083A   26137.08508808 -.00000297  00000+0 -84704-3 0  9993
2 49186  87.8935 326.4382 0001954  92.8018 267.3335 13.13471194226840
ONEWEB-0303             
1 49187U 21083B   26137.11857541  .00000049  00000+0  91134-4 0  9998
2 49187  87.9170 341.6404 0001969  91.1254 269.0104 13.18685004225885
ONEWEB-0306             
1 49188U 21083C   26137.10845854  .00000035  00000+0  55702-4 0  9998
2 49188  87.9177 341.6283 0001608  83.6712 276.4603 13.18685402225926
ONEWEB-0307             
1 49189U 21083D   26136.92680729 -.00000236  00000+0 -68253-3 0  9995
2 49189  87.8947 326.4640 0001843  93.5571 266.5769 13.13467943226829
