[{"OBJECT_NAME":"ONEWEB-0311","OBJECT_ID":"2021-075Y","EPOCH":"2026-05-17T02:43:55.449408","MEAN_MOTION":13.17648352,"ECCENTRICITY":0.000215,"INCLINATION":87.9164,"RA_OF_ASC_NODE":12.0405,"ARG_OF_PERICENTER":93.3617,"MEAN_ANOMALY":266.7761,"EPHEMERIS_TYPE":0,"CLASSIFICATION_TYPE":"U","NORAD_CAT_ID":49097,"ELEMENT_SET_NO":999,"REV_AT_EPOCH":22953,"BSTAR":0.00011504000000000001,"MEAN_MOTION_DOT":5.8e-07,"MEAN_MOTION_DDOT":0.0},{"OBJECT_NAME":"ONEWEB-0312","OBJECT_ID":"2021-075Z","EPOCH":"2026-05-17T03:05:46.229856","MEAN_MOTION":13.17648747,"ECCENTRICITY":0.0001744,"INCLINATION":87.9156,"RA_OF_ASC_NODE":12.0493,"ARG_OF_PERICENTER":93.0749,"MEAN_ANOMALY":267.0582,"EPHEMERIS_TYPE":0,"CLASSIFICATION_TYPE":"U","NORAD_CAT_ID":49098,"ELEMENT_SET_NO":999,"REV_AT_EPOCH":22951,"BSTAR":-2.2831000000000002e-05,"MEAN_MOTION_DOT":4e-08,"MEAN_MOTION_DDOT":0.0},{"OBJECT_NAME":"ONEWEB-0313","OBJECT_ID":"2021-075AA","EPOCH":"2026-05-17T03:12:53.045856","MEAN_MOTION":13.17650461,"ECCENTRICITY":0.0001869,"INCLINATION":87.9155,"RA_OF_ASC_NODE":12.0546,"ARG_OF_PERICENTER":86.1075,"MEAN_ANOMALY":274.0271,"EPHEMERIS_TYPE":0,"CLASSIFICATION_TYPE":"U","NORAD_CAT_ID":49099,"ELEMENT_SET_NO":999,"REV_AT_EPOCH":22950,"BSTAR":-9.3935e-05,"MEAN_MOTION_DOT":-2.4e-07,"MEAN_MOTION_DDOT":0.0},{"OBJECT_NAME":"ONEWEB-0314","OBJECT_ID":"2021-075AB","EPOCH":"2026-05-17T04:13:49.563840","MEAN_MOTION":13.17648916,"ECCENTRICITY":0.0001766,"INCLINATION":87.917,"RA_OF_ASC_NODE":12.0151,"ARG_OF_PERICENTER":95.8962,"MEAN_ANOMALY":264.2371,"EPHEMERIS_TYPE":0,"CLASSIFICATION_TYPE":"U","NORAD_CAT_ID":49100,"ELEMENT_SET_NO":999,"REV_AT_EPOCH":22948,"BSTAR":0.00018243,"MEAN_MOTION_DOT":8.4e-07,"MEAN_MOTION_DDOT":0.0},{"OBJECT_NAME":"ONEWEB-0315","OBJECT_ID":"2021-075AC","EPOCH":"2026-05-16T21:00:01.423008","MEAN_MOTION":13.12442308,"ECCENTRICITY":0.0002133,"INCLINATION":87.8966,"RA_OF_ASC_NODE":356.8701,"ARG_OF_PERICENTER":91.0935,"MEAN_ANOMALY":269.0438,"EPHEMERIS_TYPE":0,"CLASSIFICATION_TYPE":"U","NORAD_CAT_ID":49101,"ELEMENT_SET_NO":999,"REV_AT_EPOCH":23106,"BSTAR":-0.0008884,"MEAN_MOTION_DOT":-3.07e-06,"MEAN_MOTION_DDOT":0.0},{"OBJECT_NAME":"ONEWEB-0316","OBJECT_ID":"2021-075AD","EPOCH":"2026-05-17T03:00:27.666144","MEAN_MOTION":13.18684441,"ECCENTRICITY":0.0001875,"INCLINATION":87.9167,"RA_OF_ASC_NODE":341.6404,"ARG_OF_PERICENTER":88.4009,"MEAN_ANOMALY":271.7338,"EPHEMERIS_TYPE":0,"CLASSIFICATION_TYPE":"U","NORAD_CAT_ID":49102,"ELEMENT_SET_NO":999,"REV_AT_EPOCH":23311,"BSTAR":7.0161e-05,"MEAN_MOTION_DOT":4.1e-07,"MEAN_MOTION_DDOT":0.0},{"OBJECT_NAME":"ONEWEB-0317","OBJECT_ID":"2021-075AE","EPOCH":"2026-05-17T02:34:14.761056","MEAN_MOTION":13.12443623,"ECCENTRICITY":0.0001247,"INCLINATION":87.8967,"RA_OF_ASC_NODE":356.8473,"ARG_OF_PERICENTER":66.9137,"MEAN_ANOMALY":293.2123,"EPHEMERIS_TYPE":0,"CLASSIFICATION_TYPE":"U","NORAD_CAT_ID":49103,"ELEMENT_SET_NO":999,"REV_AT_EPOCH":23111,"BSTAR":-0.0014318,"MEAN_MOTION_DOT":-5.02e-06,"MEAN_MOTION_DDOT":0.0},{"OBJECT_NAME":"ONEWEB-0318","OBJECT_ID":"2021-075AF","EPOCH":"2026-05-17T02:55:36.105888","MEAN_MOTION":13.186854,"ECCENTRICITY":0.0002076,"INCLINATION":87.9176,"RA_OF_ASC_NODE":341.6396,"ARG_OF_PERICENTER":91.9161,"MEAN_ANOMALY":268.2209,"EPHEMERIS_TYPE":0,"CLASSIFICATION_TYPE":"U","NORAD_CAT_ID":49104,"ELEMENT_SET_NO":999,"REV_AT_EPOCH":23307,"BSTAR":0.00011792,"MEAN_MOTION_DOT":5.9e-07,"MEAN_MOTION_DDOT":0.0},{"OBJECT_NAME":"ONEWEB-0319","OBJECT_ID":"2021-075AG","EPOCH":"2026-05-17T02:46:20.133120","MEAN_MOTION":13.17651034,"ECCENTRICITY":0.0002323,"INCLINATION":87.916,"RA_OF_ASC_NODE":12.0461,"ARG_OF_PERICENTER":90.5789,"MEAN_ANOMALY":269.5609,"EPHEMERIS_TYPE":0,"CLASSIFICATION_TYPE":"U","NORAD_CAT_ID":49105,"ELEMENT_SET_NO":999,"REV_AT_EPOCH":22951,"BSTAR":6.9776e-05,"MEAN_MOTION_DOT":4e-07,"MEAN_MOTION_DDOT":0.0},{"OBJECT_NAME":"ONEWEB-0323","OBJECT_ID":"2021-075AH","EPOCH":"2026-05-17T03:57:11.927232","MEAN_MOTION":13.12440265,"ECCENTRICITY":0.0002201,"INCLINATION":87.8972,"RA_OF_ASC_NODE":356.8173,"ARG_OF_PERICENTER":97.1094,"MEAN_ANOMALY":263.0284,"EPHEMERIS_TYPE":0,"CLASSIFICATION_TYPE":"U","NORAD_CAT_ID":49106,"ELEMENT_SET_NO":999,"REV_AT_EPOCH":23048,"BSTAR":-0.00089613,"MEAN_MOTION_DOT":-3.1e-06,"MEAN_MOTION_DDOT":0.0},{"OBJECT_NAME":"ONEWEB-0329","OBJECT_ID":"2021-075AJ","EPOCH":"2026-05-17T02:58:29.185824","MEAN_MOTION":13.17650136,"ECCENTRICITY":0.0001825,"INCLINATION":87.916,"RA_OF_ASC_NODE":12.0451,"ARG_OF_PERICENTER":87.9628,"MEAN_ANOMALY":272.1712,"EPHEMERIS_TYPE":0,"CLASSIFICATION_TYPE":"U","NORAD_CAT_ID":49107,"ELEMENT_SET_NO":999,"REV_AT_EPOCH":22949,"BSTAR":-0.0001268,"MEAN_MOTION_DOT":-3.6e-07,"MEAN_MOTION_DDOT":0.0},{"OBJECT_NAME":"ONEWEB-0330","OBJECT_ID":"2021-075AK","EPOCH":"2026-05-17T03:32:43.062432","MEAN_MOTION":13.17648173,"ECCENTRICITY":0.0001699,"INCLINATION":87.9165,"RA_OF_ASC_NODE":12.0599,"ARG_OF_PERICENTER":89.3076,"MEAN_ANOMALY":270.825,"EPHEMERIS_TYPE":0,"CLASSIFICATION_TYPE":"U","NORAD_CAT_ID":49108,"ELEMENT_SET_NO":999,"REV_AT_EPOCH":22953,"BSTAR":-2.1137e-05,"MEAN_MOTION_DOT":5e-08,"MEAN_MOTION_DDOT":0.0},{"OBJECT_NAME":"ONEWEB-0292","OBJECT_ID":"2021-083A","EPOCH":"2026-05-17T02:02:31.610112","MEAN_MOTION":13.13471194,"ECCENTRICITY":0.0001954,"INCLINATION":87.8935,"RA_OF_ASC_NODE":326.4382,"ARG_OF_PERICENTER":92.8018,"MEAN_ANOMALY":267.3335,"EPHEMERIS_TYPE":0,"CLASSIFICATION_TYPE":"U","NORAD_CAT_ID":49186,"ELEMENT_SET_NO":999,"REV_AT_EPOCH":22684,"BSTAR":-0.0008470400000000001,"MEAN_MOTION_DOT":-2.97e-06,"MEAN_MOTION_DDOT":0.0},{"OBJECT_NAME":"ONEWEB-0303","OBJECT_ID":"2021-083B","EPOCH":"2026-05-17T02:50:44.915424","MEAN_MOTION":13.18685004,"ECCENTRICITY":0.0001969,"INCLINATION":87.917,"RA_OF_ASC_NODE":341.6404,"ARG_OF_PERICENTER":91.1254,"MEAN_ANOMALY":269.0104,"EPHEMERIS_TYPE":0,"CLASSIFICATION_TYPE":"U","NORAD_CAT_ID":49187,"ELEMENT_SET_NO":999,"REV_AT_EPOCH":22588,"BSTAR":9.113400000000001e-05,"MEAN_MOTION_DOT":4.9e-07,"MEAN_MOTION_DDOT":0.0},{"OBJECT_NAME":"ONEWEB-0306","OBJECT_ID":"2021-083C","EPOCH":"2026-05-17T02:36:10.817856","MEAN_MOTION":13.18685402,"ECCENTRICITY":0.0001608,"INCLINATION":87.9177,"RA_OF_ASC_NODE":341.6283,"ARG_OF_PERICENTER":83.6712,"MEAN_ANOMALY":276.4603,"EPHEMERIS_TYPE":0,"CLASSIFICATION_TYPE":"U","NORAD_CAT_ID":49188,"ELEMENT_SET_NO":999,"REV_AT_EPOCH":22592,"BSTAR":5.5701999999999996e-05,"MEAN_MOTION_DOT":3.5e-07,"MEAN_MOTION_DDOT":0.0},{"OBJECT_NAME":"ONEWEB-0307","OBJECT_ID":"2021-083D","EPOCH":"2026-05-16T22:14:36.149856","MEAN_MOTION":13.13467943,"ECCENTRICITY":0.0001843,"INCLINATION":87.8947,"RA_OF_ASC_NODE":326.464,"ARG_OF_PERICENTER":93.5571,"MEAN_ANOMALY":266.5769,"EPHEMERIS_TYPE":0,"CLASSIFICATION_TYPE":"U","NORAD_CAT_ID":49189,"ELEMENT_SET_NO":999,"REV_AT_EPOCH":22682,"BSTAR":-0.00068253,"MEAN_MOTION_DOT":-2.36e-06,"MEAN_MOTION_DDOT":0.0}]